STARLINK-3548           
1 51864U 22022N   26147.60200518 -.00000268  00000+0  12658-5 0  9997
2 51864  53.2058  14.7890 0001234  95.1255 264.9877 15.08834048235076
STARLINK-3503           
1 51865U 22022P   26147.65721020 -.00000015  00000+0  17129-4 0  9996
2 51865  53.2051  14.6176 0001247  90.1402 269.9733 15.08837044235030
STARLINK-3553           
1 51866U 22022Q   26147.58823172 -.00000243  00000+0  28136-5 0  9994
2 51866  53.2070  14.7861 0001486  83.9733 276.1428 15.08835085235029
STARLINK-3590           
1 51867U 22022R   26147.65353296 -.00001135  00000+0 -53198-4 0  9995
2 51867  53.2060  14.6371 0001672  86.7033 273.4151 15.08837829235037
STARLINK-3578           
1 51868U 22022S   26147.66089774 -.00000283  00000+0  27993-6 0  9992
2 51868  53.2050  14.6042 0001417  90.6320 269.4834 15.08830748235038
STARLINK-3588           
1 51869U 22022T   26147.64249150 -.00001169  00000+0 -55390-4 0  9992
2 51869  53.2062  14.6862 0001595  90.4141 269.7034 15.08838136235032
STARLINK-3591           
1 51870U 22022U   26146.92122251 -.00000802  00000+0 -32331-4 0  9999
2 51870  53.2074  17.9217 0001450 113.8953 246.2191 15.08825093234972
STARLINK-3567           
1 51871U 22022V   26147.24137345 -.00000129  00000+0  10030-4 0  9999
2 51871  53.2109  16.4900 0002309  37.1348 322.9804 15.08839966235085
STARLINK-3554           
1 51872U 22022W   26147.05001954  .00008118  00000+0  52805-3 0  9995
2 51872  53.2069  17.3472 0001318  73.5442 286.5695 15.08804861234946
STARLINK-3582           
1 51873U 22022X   26147.56893000  .00031338  00000+0  13977-2 0  9999
2 51873  53.2162   5.2980 0004794 111.2336 248.9174 15.21151474235163
STARLINK-3574           
1 51874U 22022Y   26147.03896668 -.00001221  00000+0 -58631-4 0  9993
2 51874  53.2093  17.3931 0001534  97.4993 262.6174 15.08850272234934
STARLINK-3585           
1 51875U 22022Z   26146.95064832 -.00000792  00000+0 -31683-4 0  9994
2 51875  53.2092  17.7018 0001887  53.5634 306.5532 15.08832344234936
STARLINK-3583           
1 51876U 22022AA  26146.90280619  .00000404  00000+0  43440-4 0  9995
2 51876  53.2074  18.0036 0001112  94.2098 265.9021 15.08843612234928
STARLINK-3556           
1 51877U 22022AB  26146.81909568 -.00001504  00000+0 -76422-4 0  9997
2 51877  53.2112   8.3807 0001939 117.1572 242.9618 15.08830160235044
STARLINK-3575           
1 51878U 22022AC  26147.62409393  .00001907  00000+0  13790-3 0  9992
2 51878  53.2061  14.7697 0001923  78.2523 281.8685 15.08840106235038
STARLINK-3572           
1 51879U 22022AD  26146.87796867  .00000078  00000+0  22966-4 0  9998
2 51879  53.2081   8.1173 0001458  64.3429 295.7714 15.08840803235054
STARLINK-3566           
1 51880U 22022AE  26146.96533517 -.00000390  00000+0 -64278-5 0  9993
2 51880  53.2092  17.4438 0001121  90.0376 270.0745 15.08843904234930
STARLINK-3504           
1 51881U 22022AF  26147.00309147 -.00000344  00000+0 -35082-5 0  9990
2 51881  53.2068   7.5560 0001201  90.3625 269.7504 15.08838299235120
STARLINK-3570           
1 51882U 22022AG  26147.01509088  .00000576  00000+0  54264-4 0  9995
2 51882  53.2096   7.5129 0001190  55.8117 304.2988 15.08832964235126
STARLINK-3576           
1 51883U 22022AH  26147.61031411 -.00000321  00000+0 -20790-5 0  9990
2 51883  53.2096   5.0112 0001344  90.9721 269.1426 15.08836836235155
STARLINK-3577           
1 51884U 22022AJ  26147.00676963  .00000483  00000+0  48412-4 0  9998
2 51884  53.2076   7.5381 0001524  78.8648 281.2515 15.08840268235150
STARLINK-3584           
1 51885U 22022AK  26146.99205180 -.00000213  00000+0  47224-5 0  9998
2 51885  53.2065   7.6063 0001902 101.6168 258.5038 15.08842742235065
STARLINK-3565           
1 51886U 22022AL  26147.59557071 -.00000270  00000+0  11300-5 0  9994
2 51886  53.2070   4.8944 0001335  86.0931 274.0214 15.08840696235169
STARLINK-3551           
1 51887U 22022AM  26147.51829416 -.00000976  00000+0 -43230-4 0  9992
2 51887  53.2053   5.2406 0001505  82.5594 277.5569 15.08839839235140
STARLINK-3536           
1 51888U 22022AN  26146.99573804 -.00000403  00000+0 -72264-5 0  9996
2 51888  53.2080   7.5875 0001541  92.8517 267.2652 15.08841365235073
STARLINK-3547           
1 51889U 22022AP  26146.84485930 -.00000689  00000+0 -25198-4 0  9992
2 51889  53.2095   8.2675 0001803 103.5645 256.5548 15.08823939235048
STARLINK-3549           
1 51891U 22022AR  26147.56978794  .00001872  00000+0  13561-3 0  9993
2 51891  53.2064   5.0092 0001355 122.4036 237.7088 15.08855833235207
STARLINK-3587           
1 51892U 22022AS  26146.98101316  .00000371  00000+0  41395-4 0  9997
2 51892  53.2060   7.6545 0001789  92.3694 267.7503 15.08833319235065
STARLINK-3579           
1 51893U 22022AT  26147.62853763  .00004862  00000+0  32260-3 0  9999
2 51893  53.2186   4.7489 0001336  91.4668 268.6477 15.08925167235220
STARLINK-3595           
1 51894U 22022AU  26147.63237781 -.00001826  00000+0 -96650-4 0  9990
2 51894  53.2064   4.7300 0001301  92.6305 267.4836 15.08838695235226
STARLINK-3594           
1 51895U 22022AV  26147.02885975  .00003388  00000+0  23093-3 0  9991
2 51895  53.2082   7.4363 0001700 115.9864 244.1303 15.08824030235070
STARLINK-3593           
1 51896U 22022AW  26146.85223581 -.00002828  00000+0 -15960-3 0  9995
2 51896  53.2068   8.4537 0001523  77.3626 282.7536 15.08851448235090
STARLINK-3598           
1 51897U 22022AX  26147.02516691 -.00001479  00000+0 -74859-4 0  9997
2 51897  53.2071   7.4576 0001556  71.3799 288.7362 15.08844610235072
STARLINK-3597           
1 51898U 22022AY  26147.61764821 -.00001882  00000+0 -10017-3 0  9996
2 51898  53.2042   4.7961 0001463  88.0587 272.0573 15.08846664235213
2022-023A               
1 51946U 22023A   26147.61321285  .00016878  00000+0  72366-3 0  9998
2 51946  63.4861 340.2642 0104304 343.0670  16.6970 15.18035133234593
2022-023B               
1 51947U 22023B   26147.67578406  .00002555  00000+0  12081-3 0  9999
2 51947  63.4846 339.4372 0098584 347.2925  12.5703 15.18065916234601
2022-023C               
1 51948U 22023C   26147.61638500  .00018074  00000+0  77964-3 0  9990
2 51948  63.4950 341.0446 0100902 350.1697   9.7439 15.18099535234592
2022-023D               
1 51949U 22023D   26147.50324875  .00019916  00000+0  80648-3 0  9995
2 51949  63.4569 342.0322 0122343 355.9534   4.0576 15.18058512234577
2022-023E               
1 51950U 22023E   26147.63484737  .00000011  00000+0  13556-3 0  9995
2 51950  63.4633   7.1874 0158154 348.6828  11.0663 13.56283588219241
2022-023F               
1 51951U 22023F   26147.65677916  .00021862  00000+0  86501-3 0  9998
2 51951  63.4464 343.2783 0128472 343.4928  16.2017 15.18106353234590
STARLINK-3700           
1 51956U 22025A   26147.03960709  .00002232  00000+0  83658-4 0  9993
2 51956  53.1615   9.2354 0001146  94.1164 265.9968 15.31707567233172
STARLINK-3694           
1 51957U 22025B   26146.90491800  .00000481  00000+0  27258-4 0  9998
2 51957  53.1629  33.0810 0001279  93.7808 266.3340 15.31702024232819
STARLINK-3692           
1 51958U 22025C   26147.03027249  .00000757  00000+0  36135-4 0  9996
2 51958  53.1605   9.1895 0001508  86.3754 273.7420 15.31714901233172
STARLINK-3704           
1 51959U 22025D   26146.96625465  .00004141  00000+0  14509-3 0  9993
2 51959  53.1600  33.3651 0001123 100.7040 259.4088 15.31710776232816
STARLINK-3691           
1 51960U 22025E   26146.95152096 -.00002788  00000+0 -78139-4 0  9996
2 51960  53.1620  32.6729 0001414  85.1686 274.9477 15.31683217232827
STARLINK-3697           
1 51962U 22025G   26147.07898606 -.00007775  00000+0 -23907-3 0  9999
2 51962  53.1603  19.6944 0001312  93.0017 267.1134 15.31695546233022
STARLINK-3675           
1 51963U 22025H   26147.02561321  .00000270  00000+0  20455-4 0  9993
2 51963  53.1605   9.2097 0001240  83.3004 276.8139 15.31704910233171
STARLINK-3690           
1 51964U 22025J   26147.06501539  .00003051  00000+0  11001-3 0  9999
2 51964  53.1613  19.7500 0001358  88.5471 271.5686 15.31715629233023
STARLINK-3696           
1 51965U 22025K   26147.06809348  .00005931  00000+0  20257-3 0  9991
2 51965  53.1609  32.6826 0001357  84.1318 275.9838 15.31724828232831
STARLINK-3699           
1 51966U 22025L   26147.05873691  .00000165  00000+0  17069-4 0  9995
2 51966  53.1600  32.4784 0001356  91.7260 268.3897 15.31704058232837
STARLINK-3681           
1 51968U 22025N   26147.33334491 -.00006379  00000+0 -19393-3 0  9994
2 51968  53.1597  18.5027 0001195  95.1606 356.8032 15.31707844  5885
STARLINK-3680           
1 51969U 22025P   26147.65693025  .00000486  00000+0  27433-4 0  9997
2 51969  53.1618  17.0374 0001355  94.8046 265.3111 15.31699630233104
STARLINK-3677           
1 51970U 22025Q   26147.65558819 -.00000301  00000+0  19622-5 0  9999
2 51970  53.1596  29.9264 0001047  82.6853 277.4267 15.30189335232920
STARLINK-3669           
1 51971U 22025R   26147.08368363  .00000046  00000+0  13257-4 0  9992
2 51971  53.1625  19.8663 0001650  94.3233 265.7957 15.31701331233022
STARLINK-3671           
1 51972U 22025S   26147.11527494 -.00000084  00000+0  94253-5 0  9998
2 51972  53.1572  32.3477 0001424  91.5025 268.6139 15.29357188232841
STARLINK-3679           
1 51973U 22025T   26147.63666863  .00000335  00000+0  22578-4 0  9998
2 51973  53.1621  29.7662 0001481  94.3340 265.7831 15.31702872232920
STARLINK-3672           
1 51974U 22025U   26147.66667824  .00036879  00000+0  11946-2 0  9997
2 51974  53.1587  29.8560 0001328  99.9036  39.9048 15.31691662  5870
STARLINK-3674           
1 51975U 22025V   26147.66667824  .00037181  00000+0  12038-2 0  9998
2 51975  53.1595  16.4817 0001198  94.3360  11.3396 15.31703127  5882
STARLINK-3660           
1 51977U 22025X   26146.98012977 -.00000403  00000+0 -72450-5 0  9993
2 51977  53.2070  27.6630 0001291  84.3379 275.7760 15.08836025233155
